[{"OBJECT_NAME":"STARLINK-5735","OBJECT_ID":"2023-020AL","EPOCH":"2026-03-09T22:00:01.999584","MEAN_MOTION":15.06279233,"ECCENTRICITY":5.97e-5,"INCLINATION":43.0003,"RA_OF_ASC_NODE":350.7132,"ARG_OF_PERICENTER":265.6856,"MEAN_ANOMALY":330.5887,"EPHEMERIS_TYPE":0,"CLASSIFICATION_TYPE":"U","NORAD_CAT_ID":55603,"ELEMENT_SET_NO":999,"REV_AT_EPOCH":572,"BSTAR":0.0010089765,"MEAN_MOTION_DOT":0.00014888,"MEAN_MOTION_DDOT":0},{"OBJECT_NAME":"FENGYUN 1C DEB","OBJECT_ID":"1999-025DXL","EPOCH":"2026-02-25T04:10:22.321344","MEAN_MOTION":15.11307044,"ECCENTRICITY":0.00591738,"INCLINATION":99.4273,"RA_OF_ASC_NODE":43.0945,"ARG_OF_PERICENTER":165.3437,"MEAN_ANOMALY":194.9519,"EPHEMERIS_TYPE":0,"CLASSIFICATION_TYPE":"U","NORAD_CAT_ID":36283,"ELEMENT_SET_NO":999,"REV_AT_EPOCH":67788,"BSTAR":0.0012995165,"MEAN_MOTION_DOT":0.00022794,"MEAN_MOTION_DDOT":0}]
